CCSDS_OEM_VERS = 1.0
CREATION_DATE  = 2017-05-11T11:10:55
ORIGINATOR     = GMAT USER

META_START
OBJECT_NAME          = MOPSSat_alt_35785_km_RAAN_90_010
OBJECT_ID            = SatId
CENTER_NAME          = Earth
REF_FRAME            = EME2000
TIME_SYSTEM          = UTC
START_TIME           = 2017-01-01T00:00:00.000
USEABLE_START_TIME   = 2017-01-01T00:00:00.000
USEABLE_STOP_TIME    = 2017-01-02T00:00:00.000
STOP_TIME            = 2017-01-02T00:00:00.000
INTERPOLATION        = Lagrange
INTERPOLATION_DEGREE = 7 
META_STOP


                                                                                   

2017-01-01T04:44:10.000  -3.991721492242241e+04   1.356227731702804e+04   6.972191731329960e+02  -9.888269895077840e-01  -2.911263340747654e+00   1.730435696600659e-02
2017-01-01T04:44:20.000  -3.992709257786193e+04   1.353316108100789e+04   6.973920314364957e+02  -9.867040474150899e-01  -2.911983713025229e+00   1.726730283889632e-02
2017-01-01T04:44:30.000  -3.993694900124473e+04   1.350403764903948e+04   6.975645191525114e+02  -9.845805805883453e-01  -2.912702536795374e+00   1.723023951156689e-02
2017-01-01T04:44:40.000  -3.994678418743514e+04   1.347490703629962e+04   6.977366361909943e+02  -9.824565901340458e-01  -2.913419811683617e+00   1.719316700332008e-02
2017-01-01T04:44:50.000  -3.995659813120664e+04   1.344576925826344e+04   6.979083824603058e+02  -9.803320771804404e-01  -2.914135537308861e+00   1.715608533383734e-02
2017-01-01T04:45:00.000  -3.996639082733946e+04   1.341662433042533e+04   6.980797578689251e+02  -9.782070428571825e-01  -2.914849713290501e+00   1.711899452282466e-02
2017-01-01T04:45:10.000  -3.997616227061940e+04   1.338747226829853e+04   6.982507623254272e+02  -9.760814882952993e-01  -2.915562339248340e+00   1.708189459001204e-02
2017-01-01T04:45:20.000  -3.998591245574669e+04   1.335831308769638e+04   6.984213957368900e+02  -9.739554146476990e-01  -2.916273414795941e+00   1.704478555551142e-02
2017-01-01T04:45:30.000  -3.999564137745991e+04   1.332914680435384e+04   6.985916580110610e+02  -9.718288230615747e-01  -2.916982939549661e+00   1.700766743933504e-02
2017-01-01T04:45:40.000  -4.000534903048589e+04   1.329997343407932e+04   6.987615490554815e+02  -9.697017146894737e-01  -2.917690913124998e+00   1.697054026158859e-02
2017-01-01T04:45:50.000  -4.001503540976241e+04   1.327079299208525e+04   6.989310687813849e+02  -9.675740906404925e-01  -2.918397335152839e+00   1.693340404161940e-02
2017-01-01T04:46:00.000  -4.002470051021483e+04   1.324160549365918e+04   6.991002170997858e+02  -9.654459520291974e-01  -2.919102205263168e+00   1.689625879887035e-02
2017-01-01T04:46:10.000  -4.003434432681389e+04   1.321241095399048e+04   6.992689939224923e+02  -9.633172999630033e-01  -2.919805523089270e+00   1.685910455265942e-02
2017-01-01T04:46:20.000  -4.004396685441930e+04   1.318320938863582e+04   6.994373991593698e+02  -9.611881355761007e-01  -2.920507288256339e+00   1.682194132277206e-02
2017-01-01T04:46:30.000  -4.005356808790933e+04   1.315400081313520e+04   6.996054327206062e+02  -9.590584600014680e-01  -2.921207500390921e+00   1.678476912897254e-02
2017-01-01T04:46:40.000  -4.006314802215073e+04   1.312478524310044e+04   6.997730945161885e+02  -9.569282743773173e-01  -2.921906159118719e+00   1.674758799111653e-02
2017-01-01T04:46:50.000  -4.007270665201170e+04   1.309556269418132e+04   6.999403844561277e+02  -9.547975798446289e-01  -2.922603264065544e+00   1.671039792910805e-02
2017-01-01T04:47:00.000  -4.008224397236590e+04   1.306633318204875e+04   7.001073024505301e+02  -9.526663775459254e-01  -2.923298814857610e+00   1.667319896287805e-02
2017-01-01T04:47:10.000  -4.009175997810403e+04   1.303709672235987e+04   7.002738484097989e+02  -9.505346686227225e-01  -2.923992811122361e+00   1.663599111233995e-02
2017-01-01T04:47:20.000  -4.010125466414027e+04   1.300785333074202e+04   7.004400222447488e+02  -9.484024542143645e-01  -2.924685252488968e+00   1.659877439736930e-02
2017-01-01T04:47:30.000  -4.011072802542202e+04   1.297860302275784e+04   7.006058238667742e+02  -9.462697354554767e-01  -2.925376138589014e+00   1.656154883775932e-02
2017-01-01T04:47:40.000  -4.012018005690177e+04   1.294934581399431e+04   7.007712531873583e+02  -9.441365134824611e-01  -2.926065469054461e+00   1.652431445333423e-02
2017-01-01T04:47:50.000  -4.012961075365947e+04   1.292008171967659e+04   7.009363101202148e+02  -9.420027894053357e-01  -2.926753243526559e+00   1.648707126345780e-02
2017-01-01T04:48:00.000  -4.013902011075381e+04   1.289081075513577e+04   7.011009945786838e+02  -9.398685643418450e-01  -2.927439461645014e+00   1.644981928762865e-02
2017-01-01T04:48:10.000  -4.014840812327852e+04   1.286153293563223e+04   7.012653064767185e+02  -9.377338394045734e-01  -2.928124123052084e+00   1.641255854525542e-02
2017-01-01T04:48:20.000  -4.015777478614289e+04   1.283224827703999e+04   7.014292457250439e+02  -9.355986157508513e-01  -2.928807227376574e+00   1.637528905652774e-02
2017-01-01T04:48:30.000  -4.016712009429150e+04   1.280295679516237e+04   7.015928122350012e+02  -9.334628945328524e-01  -2.929488774249869e+00   1.633801084154529e-02
2017-01-01T04:48:40.000  -4.017644404264730e+04   1.277365850590853e+04   7.017560059175530e+02  -9.313266769104667e-01  -2.930168763301771e+00   1.630072392054246e-02
2017-01-01T04:48:50.000  -4.018574662626298e+04   1.274435342482644e+04   7.019188266859314e+02  -9.291899640172486e-01  -2.930847194171544e+00   1.626342831329399e-02
2017-01-01T04:49:00.000  -4.019502784019558e+04   1.271504156748812e+04   7.020812744534438e+02  -9.270527569885070e-01  -2.931524066498772e+00   1.622612403960529e-02
2017-01-01T04:49:10.000  -4.020428767953556e+04   1.268572294940088e+04   7.022433491339830e+02  -9.249150569548310e-01  -2.932199379925475e+00   1.618881111919939e-02
2017-01-01T04:49:20.000  -4.021352613939431e+04   1.265639758604126e+04   7.024050506418064e+02  -9.227768650445687e-01  -2.932873134095201e+00   1.615148957176023e-02
2017-01-01T04:49:30.000  -4.022274321490021e+04   1.262706549287191e+04   7.025663788914685e+02  -9.206381823850518e-01  -2.933545328652732e+00   1.611415941695406e-02
2017-01-01T04:49:40.000  -4.023193890118752e+04   1.259772668537662e+04   7.027273337976269e+02  -9.184990101051538e-01  -2.934215963243286e+00   1.607682067447407e-02
2017-01-01T04:49:50.000  -4.024111319339011e+04   1.256838117907633e+04   7.028879152749292e+02  -9.163593493364595e-01  -2.934885037512045e+00   1.603947336406077e-02
2017-01-01T04:50:00.000  -4.025026608663200e+04   1.253902898956419e+04   7.030481232378538e+02  -9.142192012158160e-01  -2.935552551103480e+00   1.600211750554660e-02
2017-01-01T04:50:10.000  -4.025939757605473e+04   1.250967013241618e+04   7.032079576011819e+02  -9.120785668788175e-01  -2.936218503663335e+00   1.596475311874210e-02
2017-01-01T04:50:20.000  -4.026850765669903e+04   1.248030462357853e+04   7.033674182779304e+02  -9.099374474880569e-01  -2.936882894830001e+00   1.592738022392916e-02
2017-01-01T04:50:30.000  -4.027759632364856e+04   1.245093247889840e+04   7.035265051818674e+02  -9.077958441989017e-01  -2.937545724245003e+00   1.588999884126353e-02
2017-01-01T04:50:40.000  -4.028666357197629e+04   1.242155371429830e+04   7.036852182265725e+02  -9.056537581722118e-01  -2.938206991549086e+00   1.585260899099688e-02
2017-01-01T04:50:50.000  -4.029570939695323e+04   1.239216834510033e+04   7.038435573290919e+02  -9.035111905250726e-01  -2.938866696397433e+00   1.581521069261682e-02
2017-01-01T04:51:00.000  -4.030473379384000e+04   1.236277638670020e+04   7.040015224062884e+02  -9.013681423799340e-01  -2.939524838444480e+00   1.577780396570467e-02
2017-01-01T04:51:10.000  -4.031373675793448e+04   1.233337785441460e+04   7.041591133756772e+02  -8.992246148534846e-01  -2.940181417347369e+00   1.574038882974114e-02
2017-01-01T04:51:20.000  -4.032271828445223e+04   1.230397276386102e+04   7.043163301533310e+02  -8.970806090843449e-01  -2.940836432757243e+00   1.570296530458983e-02
2017-01-01T04:51:30.000  -4.033167836861604e+04   1.227456113067599e+04   7.044731726554504e+02  -8.949361262125238e-01  -2.941489884325776e+00   1.566553341013863e-02
2017-01-01T04:51:40.000  -4.034061700565492e+04   1.224514297051474e+04   7.046296407983416e+02  -8.927911673793936e-01  -2.942141771705089e+00   1.562809316629920e-02
2017-01-01T04:51:50.000  -4.034953419072081e+04   1.221571829933489e+04   7.047857344969618e+02  -8.906457337483746e-01  -2.942792094541685e+00   1.559064459336810e-02
2017-01-01T04:52:00.000  -4.035842991900176e+04   1.218628713301467e+04   7.049414536669003e+02  -8.884998264770966e-01  -2.943440852484702e+00   1.555318771154085e-02
2017-01-01T04:52:10.000  -4.036730418567695e+04   1.215684948750314e+04   7.050967982235903e+02  -8.863534467283568e-01  -2.944088045182626e+00   1.551572254110319e-02
2017-01-01T04:52:20.000  -4.037615698611717e+04   1.212740537815599e+04   7.052517680858181e+02  -8.842065956216840e-01  -2.944733672297925e+00   1.547824910158568e-02
2017-01-01T04:52:30.000  -4.038498831568415e+04   1.209795482039968e+04   7.054063631722109e+02  -8.820592742817711e-01  -2.945377733492402e+00   1.544076741260895e-02
2017-01-01T04:52:40.000  -4.039379816977638e+04   1.206849782958141e+04   7.055605834020389e+02  -8.799114838275292e-01  -2.946020228430539e+00   1.540327749369284e-02
2017-01-01T04:52:50.000  -4.040258654371204e+04   1.203903442134977e+04   7.057144286931639e+02  -8.777632253998419e-01  -2.946661156770957e+00   1.536577936474068e-02
2017-01-01T04:53:00.000  -4.041135343281656e+04   1.200956461137227e+04   7.058678989635786e+02  -8.756145001409781e-01  -2.947300518172823e+00   1.532827304568005e-02
2017-01-01T04:53:10.000  -4.042009883242181e+04   1.198008841533512e+04   7.060209941313824e+02  -8.734653091945659e-01  -2.947938312295753e+00   1.529075855646226e-02
